{
    "links": {
        "self": "http://www.neowsapp.com/rest/v1/neo/3444439?api_key=iIulBulltgU6a56xZRHN4H3l9WmuAYTsLGpBGhQ2"
    },
    "id": "3444439",
    "neo_reference_id": "3444439",
    "name": "(2009 BR5)",
    "designation": "2009 BR5",
    "nasa_jpl_url": "http://ssd.jpl.nasa.gov/sbdb.cgi?sstr=3444439",
    "absolute_magnitude_h": 22.1,
    "estimated_diameter": {
        "kilometers": {
            "estimated_diameter_min": 0.1010543415,
            "estimated_diameter_max": 0.2259643771
        },
        "meters": {
            "estimated_diameter_min": 101.054341542,
            "estimated_diameter_max": 225.9643771094
        },
        "miles": {
            "estimated_diameter_min": 0.0627922373,
            "estimated_diameter_max": 0.140407711
        },
        "feet": {
            "estimated_diameter_min": 331.5431259047,
            "estimated_diameter_max": 741.3529669956
        }
    },
    "is_potentially_hazardous_asteroid": false,
    "close_approach_data": [
        {
            "close_approach_date": "2009-02-06",
            "close_approach_date_full": "2009-Feb-06 14:16",
            "epoch_date_close_approach": 1233929760000,
            "relative_velocity": {
                "kilometers_per_second": "20.3558270124",
                "kilometers_per_hour": "73280.9772445626",
                "miles_per_hour": "45533.9494439895"
            },
            "miss_distance": {
                "astronomical": "0.0715466376",
                "lunar": "27.8316420264",
                "kilometers": "10703224.590621912",
                "miles": "6650675.3646979056"
            },
            "orbiting_body": "Earth"
        }
    ],
    "orbital_data": {
        "orbit_id": "13",
        "orbit_determination_date": "2017-04-06 09:01:36",
        "first_observation_date": "2009-01-20",
        "last_observation_date": "2009-01-31",
        "data_arc_in_days": 11,
        "observations_used": 32,
        "orbit_uncertainty": "8",
        "minimum_orbit_intersection": ".00446806",
        "jupiter_tisserand_invariant": "3.502",
        "epoch_osculation": "2454856.5",
        "eccentricity": ".659401294504579",
        "semi_major_axis": "2.028628338405573",
        "inclination": "3.837798572593573",
        "ascending_node_longitude": "300.8621344868525",
        "orbital_period": "1055.363715994981",
        "perihelion_distance": ".6909481859922652",
        "perihelion_argument": "277.2728662366912",
        "aphelion_distance": "3.366308490818881",
        "perihelion_time": "2454914.063605825778",
        "mean_anomaly": "340.3642120880166",
        "mean_motion": ".3411146266864",
        "equinox": "J2000",
        "orbit_class": {
            "orbit_class_type": "APO",
            "orbit_class_description": "Near-Earth asteroid orbits which cross the Earth’s orbit similar to that of 1862 Apollo",
            "orbit_class_range": "a (semi-major axis) > 1.0 AU; q (perihelion) < 1.017 AU"
        }
    },
    "is_sentry_object": false
}